[{"CCSDS_OMM_VERS":"2.0","COMMENT":"GENERATED VIA SPACE-TRACK.ORG API","CREATION_DATE":"2023-04-25T06:46:22","ORIGINATOR":"18 SPCS","OBJECT_NAME":"KSF3-C","OBJECT_ID":"2023-001K","CENTER_NAME":"EARTH","REF_FRAME":"TEME","TIME_SYSTEM":"UTC","MEAN_ELEMENT_THEORY":"SGP4","EPOCH":"2023-04-25T03:06:23.031072","MEAN_MOTION":"15.15595745","ECCENTRICITY":"0.00107850","INCLINATION":"97.4806","RA_OF_ASC_NODE":"175.4279","ARG_OF_PERICENTER":"191.4280","MEAN_ANOMALY":"252.4252","EPHEMERIS_TYPE":"0","CLASSIFICATION_TYPE":"U","NORAD_CAT_ID":"55018","ELEMENT_SET_NO":"999","REV_AT_EPOCH":"1702","BSTAR":"0.00121800000000","MEAN_MOTION_DOT":"0.00023149","MEAN_MOTION_DDOT":"0.0000000000000","SEMIMAJOR_AXIS":"6897.308","PERIOD":"95.012","APOAPSIS":"526.611","PERIAPSIS":"511.734","OBJECT_TYPE":"PAYLOAD","RCS_SIZE":"MEDIUM","COUNTRY_CODE":"LUXE","LAUNCH_DATE":"2023-01-03","SITE":"AFETR","DECAY_DATE":null,"FILE":"3893649","GP_ID":"230709230","TLE_LINE0":"0 KSF3-C","TLE_LINE1":"1 55018U 23001K   23115.12943323  .00023149  00000-0  12180-2 0  9997","TLE_LINE2":"2 55018  97.4806 175.4279 0010785 191.4280 252.4252 15.15595745 17025"},{"CCSDS_OMM_VERS":"2.0","COMMENT":"GENERATED VIA SPACE-TRACK.ORG API","CREATION_DATE":"2023-04-25T14:46:12","ORIGINATOR":"18 SPCS","OBJECT_NAME":"KSF3-C","OBJECT_ID":"2023-001K","CENTER_NAME":"EARTH","REF_FRAME":"TEME","TIME_SYSTEM":"UTC","MEAN_ELEMENT_THEORY":"SGP4","EPOCH":"2023-04-25T11:12:29.789280","MEAN_MOTION":"15.15616152","ECCENTRICITY":"0.00108920","INCLINATION":"97.4811","RA_OF_ASC_NODE":"175.7612","ARG_OF_PERICENTER":"190.4424","MEAN_ANOMALY":"294.1321","EPHEMERIS_TYPE":"0","CLASSIFICATION_TYPE":"U","NORAD_CAT_ID":"55018","ELEMENT_SET_NO":"999","REV_AT_EPOCH":"1707","BSTAR":"0.00136650000000","MEAN_MOTION_DOT":"0.00026004","MEAN_MOTION_DDOT":"0.0000000000000","SEMIMAJOR_AXIS":"6897.246","PERIOD":"95.011","APOAPSIS":"526.623","PERIAPSIS":"511.598","OBJECT_TYPE":"PAYLOAD","RCS_SIZE":"MEDIUM","COUNTRY_CODE":"LUXE","LAUNCH_DATE":"2023-01-03","SITE":"AFETR","DECAY_DATE":null,"FILE":"3893947","GP_ID":"230716560","TLE_LINE0":"0 KSF3-C","TLE_LINE1":"1 55018U 23001K   23115.46701145  .00026004  00000-0  13665-2 0  9990","TLE_LINE2":"2 55018  97.4811 175.7612 0010892 190.4424 294.1321 15.15616152 17074"},{"CCSDS_OMM_VERS":"2.0","COMMENT":"GENERATED VIA SPACE-TRACK.ORG API","CREATION_DATE":"2023-04-25T17:15:25","ORIGINATOR":"18 SPCS","OBJECT_NAME":"KSF3-C","OBJECT_ID":"2023-001K","CENTER_NAME":"EARTH","REF_FRAME":"TEME","TIME_SYSTEM":"UTC","MEAN_ELEMENT_THEORY":"SGP4","EPOCH":"2023-04-25T11:12:29.789280","MEAN_MOTION":"15.15616152","ECCENTRICITY":"0.00108920","INCLINATION":"97.4811","RA_OF_ASC_NODE":"175.7612","ARG_OF_PERICENTER":"190.4424","MEAN_ANOMALY":"294.1321","EPHEMERIS_TYPE":"0","CLASSIFICATION_TYPE":"U","NORAD_CAT_ID":"55018","ELEMENT_SET_NO":"999","REV_AT_EPOCH":"1707","BSTAR":"0.00136650000000","MEAN_MOTION_DOT":"0.00026004","MEAN_MOTION_DDOT":"0.0000000000000","SEMIMAJOR_AXIS":"6897.246","PERIOD":"95.011","APOAPSIS":"526.623","PERIAPSIS":"511.598","OBJECT_TYPE":"PAYLOAD","RCS_SIZE":"MEDIUM","COUNTRY_CODE":"LUXE","LAUNCH_DATE":"2023-01-03","SITE":"AFETR","DECAY_DATE":null,"FILE":"3894092","GP_ID":"230745394","TLE_LINE0":"0 KSF3-C","TLE_LINE1":"1 55018U 23001K   23115.46701145  .00026004  00000-0  13665-2 0  9990","TLE_LINE2":"2 55018  97.4811 175.7612 0010892 190.4424 294.1321 15.15616152 17074"},{"CCSDS_OMM_VERS":"2.0","COMMENT":"GENERATED VIA SPACE-TRACK.ORG API","CREATION_DATE":"2023-04-26T20:58:30","ORIGINATOR":"18 SPCS","OBJECT_NAME":"KSF3-C","OBJECT_ID":"2023-001K","CENTER_NAME":"EARTH","REF_FRAME":"TEME","TIME_SYSTEM":"UTC","MEAN_ELEMENT_THEORY":"SGP4","EPOCH":"2023-04-26T10:58:47.651808","MEAN_MOTION":"15.15632395","ECCENTRICITY":"0.00112020","INCLINATION":"97.4809","RA_OF_ASC_NODE":"176.7368","ARG_OF_PERICENTER":"186.9525","MEAN_ANOMALY":"298.4799","EPHEMERIS_TYPE":"0","CLASSIFICATION_TYPE":"U","NORAD_CAT_ID":"55018","ELEMENT_SET_NO":"999","REV_AT_EPOCH":"1722","BSTAR":"0.00082859000000","MEAN_MOTION_DOT":"0.00015728","MEAN_MOTION_DDOT":"0.0000000000000","SEMIMAJOR_AXIS":"6897.196","PERIOD":"95.010","APOAPSIS":"526.788","PERIAPSIS":"511.335","OBJECT_TYPE":"PAYLOAD","RCS_SIZE":"MEDIUM","COUNTRY_CODE":"LUXE","LAUNCH_DATE":"2023-01-03","SITE":"AFETR","DECAY_DATE":null,"FILE":"3894260","GP_ID":"230775785","TLE_LINE0":"0 KSF3-C","TLE_LINE1":"1 55018U 23001K   23116.45749597  .00015728  00000-0  82859-3 0  9996","TLE_LINE2":"2 55018  97.4809 176.7368 0011202 186.9525 298.4799 15.15632395 17228"},{"CCSDS_OMM_VERS":"2.0","COMMENT":"GENERATED VIA SPACE-TRACK.ORG API","CREATION_DATE":"2023-04-27T03:48:29","ORIGINATOR":"18 SPCS","OBJECT_NAME":"KSF3-C","OBJECT_ID":"2023-001K","CENTER_NAME":"EARTH","REF_FRAME":"TEME","TIME_SYSTEM":"UTC","MEAN_ELEMENT_THEORY":"SGP4","EPOCH":"2023-04-26T18:57:25.435872","MEAN_MOTION":"15.15636842","ECCENTRICITY":"0.00113080","INCLINATION":"97.4808","RA_OF_ASC_NODE":"177.0645","ARG_OF_PERICENTER":"186.2870","MEAN_ANOMALY":"311.5523","EPHEMERIS_TYPE":"0","CLASSIFICATION_TYPE":"U","NORAD_CAT_ID":"55018","ELEMENT_SET_NO":"999","REV_AT_EPOCH":"1727","BSTAR":"0.00072934000000","MEAN_MOTION_DOT":"0.00013835","MEAN_MOTION_DDOT":"0.0000000000000","SEMIMAJOR_AXIS":"6897.183","PERIOD":"95.010","APOAPSIS":"526.847","PERIAPSIS":"511.249","OBJECT_TYPE":"PAYLOAD","RCS_SIZE":"MEDIUM","COUNTRY_CODE":"LUXE","LAUNCH_DATE":"2023-01-03","SITE":"AFETR","DECAY_DATE":null,"FILE":"3894261","GP_ID":"230802793","TLE_LINE0":"0 KSF3-C","TLE_LINE1":"1 55018U 23001K   23116.78987773  .00013835  00000-0  72934-3 0  9992","TLE_LINE2":"2 55018  97.4808 177.0645 0011308 186.2870 311.5523 15.15636842 17270"},{"CCSDS_OMM_VERS":"2.0","COMMENT":"GENERATED VIA SPACE-TRACK.ORG API","CREATION_DATE":"2023-04-27T06:36:13","ORIGINATOR":"18 SPCS","OBJECT_NAME":"KSF3-C","OBJECT_ID":"2023-001K","CENTER_NAME":"EARTH","REF_FRAME":"TEME","TIME_SYSTEM":"UTC","MEAN_ELEMENT_THEORY":"SGP4","EPOCH":"2023-04-27T04:07:46.435872","MEAN_MOTION":"15.15640178","ECCENTRICITY":"0.00110210","INCLINATION":"97.4811","RA_OF_ASC_NODE":"177.4408","ARG_OF_PERICENTER":"183.7734","MEAN_ANOMALY":"238.0549","EPHEMERIS_TYPE":"0","CLASSIFICATION_TYPE":"U","NORAD_CAT_ID":"55018","ELEMENT_SET_NO":"999","REV_AT_EPOCH":"1733","BSTAR":"0.00060799000000","MEAN_MOTION_DOT":"0.00011519","MEAN_MOTION_DDOT":"0.0000000000000","SEMIMAJOR_AXIS":"6897.173","PERIOD":"95.009","APOAPSIS":"526.639","PERIAPSIS":"511.436","OBJECT_TYPE":"PAYLOAD","RCS_SIZE":"MEDIUM","COUNTRY_CODE":"LUXE","LAUNCH_DATE":"2023-01-03","SITE":"AFETR","DECAY_DATE":null,"FILE":"3894335","GP_ID":"230804950","TLE_LINE0":"0 KSF3-C","TLE_LINE1":"1 55018U 23001K   23117.17206523  .00011519  00000-0  60799-3 0  9996","TLE_LINE2":"2 55018  97.4811 177.4408 0011021 183.7734 238.0549 15.15640178 17333"},{"CCSDS_OMM_VERS":"2.0","COMMENT":"GENERATED VIA SPACE-TRACK.ORG API","CREATION_DATE":"2023-04-27T16:16:14","ORIGINATOR":"18 SPCS","OBJECT_NAME":"KSF3-C","OBJECT_ID":"2023-001K","CENTER_NAME":"EARTH","REF_FRAME":"TEME","TIME_SYSTEM":"UTC","MEAN_ELEMENT_THEORY":"SGP4","EPOCH":"2023-04-27T12:15:01.217664","MEAN_MOTION":"15.15668140","ECCENTRICITY":"0.00100400","INCLINATION":"97.4806","RA_OF_ASC_NODE":"177.7731","ARG_OF_PERICENTER":"183.2236","MEAN_ANOMALY":"283.6907","EPHEMERIS_TYPE":"0","CLASSIFICATION_TYPE":"U","NORAD_CAT_ID":"55018","ELEMENT_SET_NO":"999","REV_AT_EPOCH":"1738","BSTAR":"0.00094131000000","MEAN_MOTION_DOT":"0.00017895","MEAN_MOTION_DDOT":"0.0000000000000","SEMIMAJOR_AXIS":"6897.088","PERIOD":"95.008","APOAPSIS":"525.878","PERIAPSIS":"512.028","OBJECT_TYPE":"PAYLOAD","RCS_SIZE":"MEDIUM","COUNTRY_CODE":"LUXE","LAUNCH_DATE":"2023-01-03","SITE":"AFETR","DECAY_DATE":null,"FILE":"3894597","GP_ID":"230810910","TLE_LINE0":"0 KSF3-C","TLE_LINE1":"1 55018U 23001K   23117.51043076  .00017895  00000-0  94131-3 0  9996","TLE_LINE2":"2 55018  97.4806 177.7731 0010040 183.2236 283.6907 15.15668140 17389"},{"CCSDS_OMM_VERS":"2.0","COMMENT":"GENERATED VIA SPACE-TRACK.ORG API","CREATION_DATE":"2023-04-27T20:46:29","ORIGINATOR":"18 SPCS","OBJECT_NAME":"KSF3-C","OBJECT_ID":"2023-001K","CENTER_NAME":"EARTH","REF_FRAME":"TEME","TIME_SYSTEM":"UTC","MEAN_ELEMENT_THEORY":"SGP4","EPOCH":"2023-04-27T12:15:01.217664","MEAN_MOTION":"15.15668140","ECCENTRICITY":"0.00100400","INCLINATION":"97.4806","RA_OF_ASC_NODE":"177.7731","ARG_OF_PERICENTER":"183.2236","MEAN_ANOMALY":"283.6907","EPHEMERIS_TYPE":"0","CLASSIFICATION_TYPE":"U","NORAD_CAT_ID":"55018","ELEMENT_SET_NO":"999","REV_AT_EPOCH":"1738","BSTAR":"0.00094131000000","MEAN_MOTION_DOT":"0.00017895","MEAN_MOTION_DDOT":"0.0000000000000","SEMIMAJOR_AXIS":"6897.088","PERIOD":"95.008","APOAPSIS":"525.878","PERIAPSIS":"512.028","OBJECT_TYPE":"PAYLOAD","RCS_SIZE":"MEDIUM","COUNTRY_CODE":"LUXE","LAUNCH_DATE":"2023-01-03","SITE":"AFETR","DECAY_DATE":null,"FILE":"3894751","GP_ID":"230839800","TLE_LINE0":"0 KSF3-C","TLE_LINE1":"1 55018U 23001K   23117.51043076  .00017895  00000-0  94131-3 0  9996","TLE_LINE2":"2 55018  97.4806 177.7731 0010040 183.2236 283.6907 15.15668140 17389"}]